CZ-4B R/B               
1 27432U 02024C   24088.36053159  .00000153  00000+0  10292-3 0  9995
2 27432  98.9860 130.2545 0049485 239.1896 131.6298 14.14294631128688
MIDORI II (ADEOS-II)    
1 27597U 02056A   24088.47754032  .00000785  00000+0  33264-3 0  9997
2 27597  98.6845  35.5331 0000358  50.0183 310.1029 14.28255159108732
H-2A R/B                
1 27601U 02056E   24088.50578046  .00000725  00000+0  27322-3 0  9998
2 27601  98.2244  69.6104 0072480 121.5382 348.8262 14.32701105112232
CZ-4B R/B               
1 28059U 03049C   24088.44919812  .00001000  00000+0  24729-3 0  9997
2 28059  98.6023  48.5927 0048108 241.9559 117.6767 14.53637174 83215
CZ-2C R/B               
1 28222U 04012C   24088.51766242  .00014195  00000+0  58313-3 0  9990
2 28222  97.8088  98.0642 0034678 334.2562  25.6946 15.23754669 94801
SL-16 R/B               
1 28353U 04021B   24088.54065984 -.00000229  00000+0 -94547-4 0  9998
2 28353  70.9992 284.6761 0004021  10.6329 349.4877 14.14394014 22277
CZ-4B R/B               
1 28415U 04035C   24088.36266968  .00006877  00000+0  37006-3 0  9996
2 28415  97.4336 123.8542 0042269 304.7952  54.9305 15.14388190 71725
CZ-2C R/B               
1 28480U 04046B   24088.41686469  .00000577  00000+0  23106-3 0  9995
2 28480  98.1546  38.0908 0142105  98.1221 263.6108 14.26278993  7083
ARIANE 5 R/B            
1 28499U 04049H   24088.33341831  .00002743  00000+0  32754-3 0  9996
2 28499  98.1697 224.5023 0089540 134.0254 226.8381 14.82260831 40297
CZ-2D R/B               
1 28738U 05024B   24088.49459189  .00013138  00000+0  54629-3 0  9994
2 28738  97.3646  88.3552 0011307  74.0673 286.1810 15.23852254 30360
SUZAKU (ASTRO-EII)      
1 28773U 05025A   24086.72871274  .00041244  00000+0  98175-3 0  9994
2 28773  31.3894 336.8630 0000823 202.2272 157.8346 15.40399997 34249
ALOS (DAICHI)           
1 28931U 06002A   24088.59432232  .00002719  00000+0  51230-3 0  9995
2 28931  98.0292  43.4421 0002370  71.9758 288.1704 14.65330046969176
H-2A R/B                
1 28932U 06002B   24088.49046243  .00008334  00000+0  63739-3 0  9994
2 28932  98.2088 175.7284 0075438 110.8262 250.1061 14.99919200987230
RESURS-DK 1             
1 29228U 06021A   24088.50657652  .00003683  00000+0  25430-3 0  9996
2 29228  69.9339 268.5830 0003646 187.6963 172.4144 15.06672359980166
GENESIS 1               
1 29252U 06029A   24088.35894843  .00021728  00000+0  63803-3 0  9995
2 29252  64.5161  78.2323 0014678 335.4633  24.5798 15.35060209978160
CZ-4B R/B               
1 29507U 06046C   24088.55649037  .00004867  00000+0  32620-3 0  9990
2 29507  97.6534 125.1003 0041005 189.4158 170.6305 15.06655740952576
CZ-2C R/B               
1 31114U 07010B   24088.63361231  .00000421  00000+0  21426-3 0  9999
2 31114  98.3177 229.4631 0059107 201.9337 157.9309 14.19733278878801
COSMO-SKYMED 1          
1 31598U 07023A   24088.52839443  .00001352  00000+0  17643-3 0  9992
2 31598  97.8860 272.8557 0001389  81.5973 278.5397 14.82140436909176
GENESIS 2               
1 31789U 07028A   24088.44529635  .00016544  00000+0  50456-3 0  9997
2 31789  64.4893 123.1794 0030579 227.8494 132.0038 15.33639338925020
COSMOS 2428             
1 31792U 07029A   24088.47968544  .00000146  00000+0  10455-3 0  9997
2 31792  70.9457 256.0947 0009969 177.5952 182.5219 14.12711820863640
SL-16 R/B               
1 31793U 07029B   24088.55154767 -.00000007  00000+0  21210-4 0  9990
2 31793  70.9759 227.0116 0002614 280.8168 149.7448 14.14608201864795
KORONAS-FOTON           
1 33504U 09003A   24088.51783787  .00009789  00000+0  39378-3 0  9990
2 33504  82.4347 284.3384 0016115 161.5179 198.6647 15.24644198836722
CZ-2C R/B               
1 37731U 11030B   24088.47028191  .00002220  00000+0  31181-3 0  9992
2 37731  97.7562  55.3556 0057622 140.7728 334.0769 14.77246883684931
H-2A R/B                
1 38341U 12025E   24088.46343151  .00003353  00000+0  36391-3 0  9996
2 38341  98.4281 354.9530 0052654 109.2082 251.4841 14.87891792642188
CUSAT 2 & FALCON 9 R/B  
1 39271U 13055G   24088.37346743  .00070512  35683-6  93854-3 0  9993
2 39271  80.9390 176.3672 0344715 216.3005 141.4394 15.10882866553123
SHIJIAN-16 (SJ-16)      
1 39358U 13057A   24088.53137721  .00002221  00000+0  24219-3 0  9992
2 39358  74.9708  87.7498 0017225  28.2818 331.9299 14.88352798565540
CZ-2C R/B               
1 39364U 13059B   24088.55835211  .00100283  00000+0  83174-3 0  9994
2 39364  97.0535 137.0219 0019706 120.7382 239.5825 15.69642323580485
SL-4 R/B                
1 39679U 14021B   24088.43209812  .00007766  00000+0  30477-3 0  9992
2 39679  51.6073 150.8961 0141311  72.2052 289.4284 15.17963528547490
ALOS-2                  
1 39766U 14029A   24088.55947701  .00003347  00000+0  45455-3 0  9999
2 39766  97.9193 186.3614 0001480  94.6797 265.4584 14.79496420531723
SL-27 R/B               
1 40354U 14084B   24088.54460222  .00043479  00000+0  39032-3 0  9996
2 40354  74.7289  24.8318 0024238 230.5752 129.3330 15.67671803521478
YAOGAN-29               
1 41038U 15069A   24088.54413306  .00001135  00000+0  15139-3 0  9996
2 41038  98.0602 102.4728 0003070 121.0820 239.0693 14.81589192450527
ASTRO-H (HITOMI)        
1 41337U 16012A   24088.59815501  .00004170  00000+0  29542-3 0  9990
2 41337  31.0017 242.9703 0011356  54.2088 305.9602 15.03076612444886
HXMT (HUIYAN)           
1 42758U 17034A   24088.23282617  .00011123  00000+0  57203-3 0  9991
2 42758  43.0162   2.7132 0000987 281.7282  78.3455 15.16470410374569
CZ-2C R/B               
1 43521U 18054D   24088.60848339  .00019669  00000+0  71730-3 0  9997
2 43521  35.1497 265.4816 0060350 121.2332 239.4318 15.25548523318547
SAOCOM 1A               
1 43641U 18076A   24088.53687042  .00001162  00000+0  15247-3 0  9998
2 43641  97.8896 275.9223 0001497  89.3916 270.7469 14.82155202296028
H-2A R/B                
1 43682U 18084L   24088.45956794  .00008640  00000+0  48297-3 0  9995
2 43682  98.8545 162.8805 0045398 278.6437  80.9648 15.12922886297287
SAOCOM 1B               
1 46265U 20059A   24088.56810912  .00001195  00000+0  15670-3 0  9990
2 46265  97.8905 275.0452 0001323  88.5684 271.5681 14.82151813193418
CSS (TIANHE)            
1 48274U 21035A   24088.56263636  .00001440  00000+0  18361-4 0  9996
2 48274  41.4678 215.8703 0010144 270.5943  89.3735 15.64198325166476
COSMOS 2550             
1 48865U 21056A   24088.03752593 -.00000158  00000+0  10317-5 0  9992
2 48865  67.1416  33.7899 0008430 269.4611  90.5577 15.33834562154329
2022-019U               
1 51842U 22019U   24088.57737382  .00082888  00000+0  10642-2 0  9996
2 51842  97.5105 189.9359 0031464  31.0732 329.2376 15.58242337116490
CZ-2C R/B               
1 52794U 22058K   24088.52984063  .00015472  00000+0  64043-3 0  9991
2 52794  50.1701 276.1805 0084911 164.3157 196.0459 15.20806455100834
CZ-2C R/B               
1 53131U 22082D   24088.54395904  .00256215  25425-4  94271-3 0  9997
2 53131  97.3108 119.1078 0012992 240.2070 119.7910 15.88105455 96339
XRISM                   
1 57800U 23137A   24088.54586824  .00006174  00000+0  47678-3 0  9992
2 57800  31.0024 165.5124 0010126 130.2745 229.8776 15.00098038 30488
